ORBCOMM FM37            
1 33064U 08031E   24274.37722635  .00005941  00000+0  85076-3 0  9999
2 33064  48.4389 137.0144 0005378 335.9147 194.6089 14.77575641875597
ORBCOMM FM40            
1 33065U 08031F   24274.61402354  .00006781  00000+0  93109-3 0  9999
2 33065  48.4404 123.7515 0006348 347.3634  48.1182 14.79185348875697
VESSELSAT 1             
1 37840U 11058C   24274.19327229  .00000613  00000+0  18993-3 0  9993
2 37840  19.9610 226.9814 0013660 206.3641 153.6069 14.11222379669531
ORBCOMM FM109           
1 40086U 14040A   24274.15358575  .00003626  00000+0  83103-3 0  9999
2 40086  47.0026 163.6137 0002124 211.8064 148.2693 14.57248132543122
ORBCOMM FM107           
1 40087U 14040B   24274.18856657  .00002556  00000+0  59771-3 0  9992
2 40087  47.0038 164.4446 0001311 184.8405 175.2468 14.57183621543203
ORBCOMM FM106           
1 40088U 14040C   24274.52025248  .00004297  00000+0  77462-3 0  9996
2 40088  47.0612   5.3393 0018675 299.0952  60.8068 14.67845838545307
ORBCOMM FM111           
1 40089U 14040D   24274.31518072  .00005656  00000+0  70462-3 0  9999
2 40089  47.0018 250.1877 0032392  29.4137 330.8573 14.83156491551606
ORBCOMM FM104           
1 40090U 14040E   24274.17210558  .00002832  00000+0  67939-3 0  9991
2 40090  47.0043 195.0709 0016378  96.8346 263.4403 14.55642798542728
